{
  "type": "FeatureCollection",
  "name": "njupt-xianlin-real-v1-campus",
  "metadata": {
    "datasetId": "njupt-xianlin-real-v1",
    "layer": "campus",
    "dataSource": "OPENSTREETMAP",
    "sourceId": "osm-xianlin-2026-08-22",
    "license": "ODbL-1.0",
    "requiredAttribution": "© OpenStreetMap contributors",
    "retrievedAt": "2026-08-22",
    "coordinateSystem": "EPSG:4326",
    "verificationStatus": "SOURCE_VERIFIED"
  },
  "features": [
    {
      "type": "Feature",
      "id": "osm:way:89910254",
      "properties": {
        "featureType": "CAMPUS_BOUNDARY",
        "campusCode": "NJUPT_XIANLIN",
        "externalId": "osm:way:89910254",
        "name": "南京邮电大学仙林校区",
        "dataSource": "OPENSTREETMAP",
        "verificationStatus": "SOURCE_VERIFIED",
        "sourceId": "osm-xianlin-2026-08-22",
        "sourceUpdatedAt": null,
        "osmType": "way",
        "osmId": 89910254,
        "priority": 100
      },
      "geometry": {
        "type": "Polygon",
        "coordinates": [
          [
            [
              118.919591,
              32.11984
            ],
            [
              118.9195379,
              32.1198007
            ],
            [
              118.9195078,
              32.1197371
            ],
            [
              118.9195169,
              32.1196709
            ],
            [
              118.9195619,
              32.1195971
            ],
            [
              118.9202711,
              32.1184722
            ],
            [
              118.9216594,
              32.1161124
            ],
            [
              118.9219783,
              32.115578
            ],
            [
              118.9223074,
              32.1150194
            ],
            [
              118.9225491,
              32.1146351
            ],
            [
              118.9227938,
              32.1142332
            ],
            [
              118.922846,
              32.1141991
            ],
            [
              118.9228992,
              32.1141861
            ],
            [
              118.9229788,
              32.1141859
            ],
            [
              118.9229795,
              32.1141074
            ],
            [
              118.9229872,
              32.11386
            ],
            [
              118.9229872,
              32.113767
            ],
            [
              118.9230296,
              32.1137668
            ],
            [
              118.9230352,
              32.113595
            ],
            [
              118.9230659,
              32.1133557
            ],
            [
              118.9231328,
              32.1129064
            ],
            [
              118.9232409,
              32.1129064
            ],
            [
              118.9232432,
              32.112549
            ],
            [
              118.9232184,
              32.1118857
            ],
            [
              118.9231959,
              32.1112981
            ],
            [
              118.9231875,
              32.1111046
            ],
            [
              118.9231733,
              32.1107754
            ],
            [
              118.9231598,
              32.1103614
            ],
            [
              118.9231078,
              32.1089476
            ],
            [
              118.9231067,
              32.1087579
            ],
            [
              118.9231056,
              32.1087255
            ],
            [
              118.9231056,
              32.1086959
            ],
            [
              118.923097,
              32.1084335
            ],
            [
              118.9230876,
              32.1082582
            ],
            [
              118.9230926,
              32.1079297
            ],
            [
              118.9230787,
              32.1075615
            ],
            [
              118.9230714,
              32.1073013
            ],
            [
              118.9230682,
              32.1071834
            ],
            [
              118.9230666,
              32.1070548
            ],
            [
              118.9230682,
              32.1069762
            ],
            [
              118.9230729,
              32.1069449
            ],
            [
              118.923126,
              32.1069381
            ],
            [
              118.9243545,
              32.1073216
            ],
            [
              118.9253795,
              32.1076472
            ],
            [
              118.9258246,
              32.1078174
            ],
            [
              118.9258259,
              32.1076403
            ],
            [
              118.9259987,
              32.1076994
            ],
            [
              118.92607,
              32.107725
            ],
            [
              118.9265294,
              32.1078705
            ],
            [
              118.9265945,
              32.1078905
            ],
            [
              118.926762,
              32.1079447
            ],
            [
              118.9267603,
              32.1081011
            ],
            [
              118.9268596,
              32.1081337
            ],
            [
              118.9271137,
              32.1082247
            ],
            [
              118.9274118,
              32.1083208
            ],
            [
              118.9278046,
              32.1084162
            ],
            [
              118.9281982,
              32.1085117
            ],
            [
              118.9293425,
              32.1088522
            ],
            [
              118.9298075,
              32.1090455
            ],
            [
              118.930288,
              32.1092452
            ],
            [
              118.9303979,
              32.1092853
            ],
            [
              118.9304436,
              32.1093554
            ],
            [
              118.930435,
              32.109428
            ],
            [
              118.9303522,
              32.1095537
            ],
            [
              118.9299354,
              32.1102163
            ],
            [
              118.9299125,
              32.1102504
            ],
            [
              118.929889,
              32.110288
            ],
            [
              118.9296606,
              32.1106808
            ],
            [
              118.9295,
              32.1110378
            ],
            [
              118.9294225,
              32.1112332
            ],
            [
              118.9293469,
              32.1114622
            ],
            [
              118.9292356,
              32.1119404
            ],
            [
              118.9291779,
              32.1123581
            ],
            [
              118.9291719,
              32.1128245
            ],
            [
              118.9291938,
              32.113126
            ],
            [
              118.9292276,
              32.1133988
            ],
            [
              118.9293091,
              32.1137574
            ],
            [
              118.9293867,
              32.1140454
            ],
            [
              118.929502,
              32.1144529
            ],
            [
              118.9296252,
              32.1148621
            ],
            [
              118.929834,
              32.1155239
            ],
            [
              118.930005,
              32.1160914
            ],
            [
              118.930168,
              32.1166319
            ],
            [
              118.9303549,
              32.1172364
            ],
            [
              118.9304968,
              32.117908
            ],
            [
              118.9305071,
              32.1180483
            ],
            [
              118.9305027,
              32.1180662
            ],
            [
              118.9304921,
              32.1180806
            ],
            [
              118.9304101,
              32.1181995
            ],
            [
              118.9303165,
              32.1183445
            ],
            [
              118.9302703,
              32.118411
            ],
            [
              118.9302151,
              32.1184937
            ],
            [
              118.9301426,
              32.1186018
            ],
            [
              118.9300851,
              32.1186888
            ],
            [
              118.9300551,
              32.1187338
            ],
            [
              118.9302559,
              32.1188294
            ],
            [
              118.9303412,
              32.1189059
            ],
            [
              118.9303663,
              32.118957
            ],
            [
              118.9303842,
              32.1192048
            ],
            [
              118.9303628,
              32.119382
            ],
            [
              118.9303493,
              32.1194422
            ],
            [
              118.9302501,
              32.1197523
            ],
            [
              118.9300744,
              32.1202066
            ],
            [
              118.9299162,
              32.1204962
            ],
            [
              118.9296573,
              32.1209142
            ],
            [
              118.9293502,
              32.1214503
            ],
            [
              118.9288862,
              32.1221738
            ],
            [
              118.9288245,
              32.1222783
            ],
            [
              118.9286247,
              32.1226304
            ],
            [
              118.9285268,
              32.122761
            ],
            [
              118.9282438,
              32.1231915
            ],
            [
              118.9280038,
              32.1235993
            ],
            [
              118.9279273,
              32.1236913
            ],
            [
              118.9278576,
              32.1237424
            ],
            [
              118.9277905,
              32.1237469
            ],
            [
              118.927643,
              32.1237208
            ],
            [
              118.9274754,
              32.123664
            ],
            [
              118.9269228,
              32.1234516
            ],
            [
              118.9264333,
              32.1232426
            ],
            [
              118.9261155,
              32.1231222
            ],
            [
              118.9258513,
              32.1229996
            ],
            [
              118.9252357,
              32.1226986
            ],
            [
              118.923102,
              32.1216446
            ],
            [
              118.9230551,
              32.1216298
            ],
            [
              118.9230229,
              32.1216468
            ],
            [
              118.9229532,
              32.1217706
            ],
            [
              118.9225776,
              32.1215832
            ],
            [
              118.9225374,
              32.1215344
            ],
            [
              118.9225401,
              32.1214605
            ],
            [
              118.922613,
              32.1213523
            ],
            [
              118.922613,
              32.1213342
            ],
            [
              118.9224973,
              32.1212761
            ],
            [
              118.9223987,
              32.1212271
            ],
            [
              118.9223786,
              32.1212416
            ],
            [
              118.92229,
              32.1212015
            ],
            [
              118.9217597,
              32.1209549
            ],
            [
              118.9212956,
              32.1207303
            ],
            [
              118.9209097,
              32.1205137
            ],
            [
              118.9203486,
              32.120223
            ],
            [
              118.919591,
              32.11984
            ]
          ]
        ]
      }
    }
  ]
}
