{
  "type": "FeatureCollection",
  "name": "njupt-xianlin-real-v1-pois",
  "metadata": {
    "datasetId": "njupt-xianlin-real-v1",
    "layer": "pois",
    "dataSource": "OPENSTREETMAP",
    "sourceId": "osm-xianlin-2026-08-22",
    "license": "ODbL-1.0",
    "requiredAttribution": "© OpenStreetMap contributors",
    "retrievedAt": "2026-08-22",
    "coordinateSystem": "EPSG:4326",
    "verificationStatus": "SOURCE_VERIFIED"
  },
  "features": [
    {
      "type": "Feature",
      "id": "osm:node:2342909622",
      "properties": {
        "featureType": "POI",
        "campusCode": "NJUPT_XIANLIN",
        "externalId": "osm:node:2342909622",
        "name": "恋之味",
        "dataSource": "OPENSTREETMAP",
        "verificationStatus": "SOURCE_VERIFIED",
        "sourceId": "osm-xianlin-2026-08-22",
        "sourceUpdatedAt": null,
        "osmType": "node",
        "osmId": 2342909622,
        "aliases": [],
        "keywords": [],
        "category": "DINING",
        "priority": 40,
        "positionSource": "OSM_NODE",
        "freshnessStatus": "SOURCE_ONLY",
        "lastVerifiedAt": null,
        "officialName": null,
        "displayName": "恋之味",
        "labelVisible": true,
        "buildingExternalId": "osm:way:223859786",
        "buildingLinkSource": "POINT_WITHIN_SINGLE_BUILDING"
      },
      "geometry": {
        "type": "Point",
        "coordinates": [
          118.927947,
          32.1132619
        ]
      }
    },
    {
      "type": "Feature",
      "id": "osm:node:2342909624",
      "properties": {
        "featureType": "POI",
        "campusCode": "NJUPT_XIANLIN",
        "externalId": "osm:node:2342909624",
        "name": "卧具洗衣房",
        "dataSource": "OPENSTREETMAP",
        "verificationStatus": "SOURCE_VERIFIED",
        "sourceId": "osm-xianlin-2026-08-22",
        "sourceUpdatedAt": null,
        "osmType": "node",
        "osmId": 2342909624,
        "aliases": [],
        "keywords": [],
        "category": "SHOP",
        "priority": 40,
        "positionSource": "OSM_NODE",
        "freshnessStatus": "SOURCE_ONLY",
        "lastVerifiedAt": null,
        "officialName": null,
        "displayName": "卧具洗衣房",
        "labelVisible": true
      },
      "geometry": {
        "type": "Point",
        "coordinates": [
          118.9279285,
          32.1130926
        ]
      }
    },
    {
      "type": "Feature",
      "id": "osm:node:2342909628",
      "properties": {
        "featureType": "POI",
        "campusCode": "NJUPT_XIANLIN",
        "externalId": "osm:node:2342909628",
        "name": "中信银行ATM",
        "dataSource": "OPENSTREETMAP",
        "verificationStatus": "SOURCE_VERIFIED",
        "sourceId": "osm-xianlin-2026-08-22",
        "sourceUpdatedAt": null,
        "osmType": "node",
        "osmId": 2342909628,
        "aliases": [],
        "keywords": [],
        "category": "SERVICE",
        "priority": 40,
        "positionSource": "OSM_NODE",
        "freshnessStatus": "SOURCE_ONLY",
        "lastVerifiedAt": null,
        "officialName": null,
        "displayName": "中信银行ATM",
        "labelVisible": true
      },
      "geometry": {
        "type": "Point",
        "coordinates": [
          118.9279269,
          32.1127706
        ]
      }
    },
    {
      "type": "Feature",
      "id": "osm:node:2342909630",
      "properties": {
        "featureType": "POI",
        "campusCode": "NJUPT_XIANLIN",
        "externalId": "osm:node:2342909630",
        "name": "苏果好的便利店",
        "dataSource": "OPENSTREETMAP",
        "verificationStatus": "SOURCE_VERIFIED",
        "sourceId": "osm-xianlin-2026-08-22",
        "sourceUpdatedAt": null,
        "osmType": "node",
        "osmId": 2342909630,
        "aliases": [],
        "keywords": [],
        "category": "SHOP",
        "priority": 40,
        "positionSource": "OSM_NODE",
        "freshnessStatus": "SOURCE_ONLY",
        "lastVerifiedAt": null,
        "officialName": null,
        "displayName": "苏果好的便利店",
        "labelVisible": true,
        "buildingExternalId": "osm:way:223859797",
        "buildingLinkSource": "POINT_WITHIN_SINGLE_BUILDING"
      },
      "geometry": {
        "type": "Point",
        "coordinates": [
          118.9279284,
          32.1124105
        ]
      }
    },
    {
      "type": "Feature",
      "id": "osm:node:2342909633",
      "properties": {
        "featureType": "POI",
        "campusCode": "NJUPT_XIANLIN",
        "externalId": "osm:node:2342909633",
        "name": "一鸣真鲜奶吧",
        "dataSource": "OPENSTREETMAP",
        "verificationStatus": "SOURCE_VERIFIED",
        "sourceId": "osm-xianlin-2026-08-22",
        "sourceUpdatedAt": null,
        "osmType": "node",
        "osmId": 2342909633,
        "aliases": [],
        "keywords": [],
        "category": "SHOP",
        "priority": 40,
        "positionSource": "OSM_NODE",
        "freshnessStatus": "SOURCE_ONLY",
        "lastVerifiedAt": null,
        "officialName": null,
        "displayName": "一鸣真鲜奶吧",
        "labelVisible": true
      },
      "geometry": {
        "type": "Point",
        "coordinates": [
          118.9279709,
          32.1119996
        ]
      }
    },
    {
      "type": "Feature",
      "id": "osm:node:2342909634",
      "properties": {
        "featureType": "POI",
        "campusCode": "NJUPT_XIANLIN",
        "externalId": "osm:node:2342909634",
        "name": "图文中心",
        "dataSource": "OPENSTREETMAP",
        "verificationStatus": "SOURCE_VERIFIED",
        "sourceId": "osm-xianlin-2026-08-22",
        "sourceUpdatedAt": null,
        "osmType": "node",
        "osmId": 2342909634,
        "aliases": [],
        "keywords": [],
        "category": "SHOP",
        "priority": 40,
        "positionSource": "OSM_NODE",
        "freshnessStatus": "SOURCE_ONLY",
        "lastVerifiedAt": null,
        "officialName": null,
        "displayName": "图文中心",
        "labelVisible": true
      },
      "geometry": {
        "type": "Point",
        "coordinates": [
          118.9279767,
          32.1119489
        ]
      }
    },
    {
      "type": "Feature",
      "id": "osm:node:2342909635",
      "properties": {
        "featureType": "POI",
        "campusCode": "NJUPT_XIANLIN",
        "externalId": "osm:node:2342909635",
        "name": "茶心语",
        "dataSource": "OPENSTREETMAP",
        "verificationStatus": "SOURCE_VERIFIED",
        "sourceId": "osm-xianlin-2026-08-22",
        "sourceUpdatedAt": null,
        "osmType": "node",
        "osmId": 2342909635,
        "aliases": [],
        "keywords": [],
        "category": "SHOP",
        "priority": 40,
        "positionSource": "OSM_NODE",
        "freshnessStatus": "SOURCE_ONLY",
        "lastVerifiedAt": null,
        "officialName": null,
        "displayName": "茶心语",
        "labelVisible": true
      },
      "geometry": {
        "type": "Point",
        "coordinates": [
          118.9279816,
          32.1119081
        ]
      }
    },
    {
      "type": "Feature",
      "id": "osm:node:2342909636",
      "properties": {
        "featureType": "POI",
        "campusCode": "NJUPT_XIANLIN",
        "externalId": "osm:node:2342909636",
        "name": "美家乐汉堡店",
        "dataSource": "OPENSTREETMAP",
        "verificationStatus": "SOURCE_VERIFIED",
        "sourceId": "osm-xianlin-2026-08-22",
        "sourceUpdatedAt": null,
        "osmType": "node",
        "osmId": 2342909636,
        "aliases": [],
        "keywords": [],
        "category": "DINING",
        "priority": 40,
        "positionSource": "OSM_NODE",
        "freshnessStatus": "SOURCE_ONLY",
        "lastVerifiedAt": null,
        "officialName": null,
        "displayName": "美家乐汉堡店",
        "labelVisible": true
      },
      "geometry": {
        "type": "Point",
        "coordinates": [
          118.9279893,
          32.1118656
        ]
      }
    },
    {
      "type": "Feature",
      "id": "osm:node:2342909638",
      "properties": {
        "featureType": "POI",
        "campusCode": "NJUPT_XIANLIN",
        "externalId": "osm:node:2342909638",
        "name": "中国联通",
        "dataSource": "OPENSTREETMAP",
        "verificationStatus": "SOURCE_VERIFIED",
        "sourceId": "osm-xianlin-2026-08-22",
        "sourceUpdatedAt": null,
        "osmType": "node",
        "osmId": 2342909638,
        "aliases": [],
        "keywords": [],
        "category": "SHOP",
        "priority": 40,
        "positionSource": "OSM_NODE",
        "freshnessStatus": "SOURCE_ONLY",
        "lastVerifiedAt": null,
        "officialName": null,
        "displayName": "中国联通",
        "labelVisible": true
      },
      "geometry": {
        "type": "Point",
        "coordinates": [
          118.9280387,
          32.1116092
        ]
      }
    },
    {
      "type": "Feature",
      "id": "osm:node:2342909639",
      "properties": {
        "featureType": "POI",
        "campusCode": "NJUPT_XIANLIN",
        "externalId": "osm:node:2342909639",
        "name": "波浪湾",
        "dataSource": "OPENSTREETMAP",
        "verificationStatus": "SOURCE_VERIFIED",
        "sourceId": "osm-xianlin-2026-08-22",
        "sourceUpdatedAt": null,
        "osmType": "node",
        "osmId": 2342909639,
        "aliases": [],
        "keywords": [],
        "category": "SHOP",
        "priority": 40,
        "positionSource": "OSM_NODE",
        "freshnessStatus": "SOURCE_ONLY",
        "lastVerifiedAt": null,
        "officialName": null,
        "displayName": "波浪湾",
        "labelVisible": true
      },
      "geometry": {
        "type": "Point",
        "coordinates": [
          118.9280435,
          32.1115812
        ]
      }
    },
    {
      "type": "Feature",
      "id": "osm:node:2342909640",
      "properties": {
        "featureType": "POI",
        "campusCode": "NJUPT_XIANLIN",
        "externalId": "osm:node:2342909640",
        "name": "校园眼镜",
        "dataSource": "OPENSTREETMAP",
        "verificationStatus": "SOURCE_VERIFIED",
        "sourceId": "osm-xianlin-2026-08-22",
        "sourceUpdatedAt": null,
        "osmType": "node",
        "osmId": 2342909640,
        "aliases": [],
        "keywords": [],
        "category": "SHOP",
        "priority": 40,
        "positionSource": "OSM_NODE",
        "freshnessStatus": "SOURCE_ONLY",
        "lastVerifiedAt": null,
        "officialName": null,
        "displayName": "校园眼镜",
        "labelVisible": true
      },
      "geometry": {
        "type": "Point",
        "coordinates": [
          118.9280498,
          32.1115578
        ]
      }
    },
    {
      "type": "Feature",
      "id": "osm:node:2342909641",
      "properties": {
        "featureType": "POI",
        "campusCode": "NJUPT_XIANLIN",
        "externalId": "osm:node:2342909641",
        "name": "邮苑书店",
        "dataSource": "OPENSTREETMAP",
        "verificationStatus": "SOURCE_VERIFIED",
        "sourceId": "osm-xianlin-2026-08-22",
        "sourceUpdatedAt": null,
        "osmType": "node",
        "osmId": 2342909641,
        "aliases": [],
        "keywords": [],
        "category": "SHOP",
        "priority": 40,
        "positionSource": "OSM_NODE",
        "freshnessStatus": "SOURCE_ONLY",
        "lastVerifiedAt": null,
        "officialName": null,
        "displayName": "邮苑书店",
        "labelVisible": true
      },
      "geometry": {
        "type": "Point",
        "coordinates": [
          118.928087,
          32.1114209
        ]
      }
    },
    {
      "type": "Feature",
      "id": "osm:node:2342909642",
      "properties": {
        "featureType": "POI",
        "campusCode": "NJUPT_XIANLIN",
        "externalId": "osm:node:2342909642",
        "name": "HOTDOG吧",
        "dataSource": "OPENSTREETMAP",
        "verificationStatus": "SOURCE_VERIFIED",
        "sourceId": "osm-xianlin-2026-08-22",
        "sourceUpdatedAt": null,
        "osmType": "node",
        "osmId": 2342909642,
        "aliases": [],
        "keywords": [],
        "category": "DINING",
        "priority": 40,
        "positionSource": "OSM_NODE",
        "freshnessStatus": "SOURCE_ONLY",
        "lastVerifiedAt": null,
        "officialName": null,
        "displayName": "HOTDOG吧",
        "labelVisible": true
      },
      "geometry": {
        "type": "Point",
        "coordinates": [
          118.9281135,
          32.1113413
        ]
      }
    },
    {
      "type": "Feature",
      "id": "osm:node:2340727810",
      "properties": {
        "featureType": "POI",
        "campusCode": "NJUPT_XIANLIN",
        "externalId": "osm:node:2340727810",
        "name": "南邮仙林四食堂",
        "dataSource": "OPENSTREETMAP",
        "verificationStatus": "SOURCE_VERIFIED",
        "sourceId": "osm-xianlin-2026-08-22",
        "sourceUpdatedAt": null,
        "osmType": "node",
        "osmId": 2340727810,
        "aliases": [],
        "keywords": [],
        "category": "DINING",
        "priority": 40,
        "positionSource": "OSM_NODE",
        "freshnessStatus": "SOURCE_ONLY",
        "lastVerifiedAt": null,
        "officialName": null,
        "displayName": "南邮仙林四食堂",
        "labelVisible": true
      },
      "geometry": {
        "type": "Point",
        "coordinates": [
          118.9293186,
          32.1139546
        ]
      }
    },
    {
      "type": "Feature",
      "id": "osm:node:2357066955",
      "properties": {
        "featureType": "POI",
        "campusCode": "NJUPT_XIANLIN",
        "externalId": "osm:node:2357066955",
        "name": "仙林湾",
        "dataSource": "OPENSTREETMAP",
        "verificationStatus": "SOURCE_VERIFIED",
        "sourceId": "osm-xianlin-2026-08-22",
        "sourceUpdatedAt": null,
        "osmType": "node",
        "osmId": 2357066955,
        "aliases": [],
        "keywords": [],
        "category": "DINING",
        "priority": 40,
        "positionSource": "OSM_NODE",
        "freshnessStatus": "SOURCE_ONLY",
        "lastVerifiedAt": null,
        "officialName": null,
        "displayName": "仙林湾",
        "labelVisible": true,
        "buildingExternalId": "osm:way:1390009973",
        "buildingLinkSource": "POINT_WITHIN_SINGLE_BUILDING"
      },
      "geometry": {
        "type": "Point",
        "coordinates": [
          118.9285265,
          32.1103694
        ]
      }
    },
    {
      "type": "Feature",
      "id": "osm:node:2354471368",
      "properties": {
        "featureType": "POI",
        "campusCode": "NJUPT_XIANLIN",
        "externalId": "osm:node:2354471368",
        "name": "南邮置业",
        "dataSource": "OPENSTREETMAP",
        "verificationStatus": "SOURCE_VERIFIED",
        "sourceId": "osm-xianlin-2026-08-22",
        "sourceUpdatedAt": null,
        "osmType": "node",
        "osmId": 2354471368,
        "aliases": [],
        "keywords": [],
        "category": "SHOP",
        "priority": 40,
        "positionSource": "OSM_NODE",
        "freshnessStatus": "SOURCE_ONLY",
        "lastVerifiedAt": null,
        "officialName": null,
        "displayName": "南邮置业",
        "labelVisible": true,
        "buildingExternalId": "osm:way:224896131",
        "buildingLinkSource": "POINT_WITHIN_SINGLE_BUILDING"
      },
      "geometry": {
        "type": "Point",
        "coordinates": [
          118.9277195,
          32.1200773
        ]
      }
    },
    {
      "type": "Feature",
      "id": "osm:node:11432612369",
      "properties": {
        "featureType": "POI",
        "campusCode": "NJUPT_XIANLIN",
        "externalId": "osm:node:11432612369",
        "name": "麦当劳",
        "dataSource": "OPENSTREETMAP",
        "verificationStatus": "SOURCE_VERIFIED",
        "sourceId": "osm-xianlin-2026-08-22",
        "sourceUpdatedAt": null,
        "osmType": "node",
        "osmId": 11432612369,
        "aliases": [],
        "keywords": [],
        "category": "DINING",
        "priority": 40,
        "positionSource": "OSM_NODE",
        "freshnessStatus": "SOURCE_ONLY",
        "lastVerifiedAt": null,
        "officialName": null,
        "displayName": "麦当劳",
        "labelVisible": true,
        "buildingExternalId": "osm:way:224896131",
        "buildingLinkSource": "POINT_WITHIN_SINGLE_BUILDING"
      },
      "geometry": {
        "type": "Point",
        "coordinates": [
          118.9277927,
          32.1201135
        ]
      }
    },
    {
      "type": "Feature",
      "id": "osm:node:2340193687",
      "properties": {
        "featureType": "POI",
        "campusCode": "NJUPT_XIANLIN",
        "externalId": "osm:node:2340193687",
        "name": "中超华诚超市",
        "dataSource": "OPENSTREETMAP",
        "verificationStatus": "SOURCE_VERIFIED",
        "sourceId": "osm-xianlin-2026-08-22",
        "sourceUpdatedAt": null,
        "osmType": "node",
        "osmId": 2340193687,
        "aliases": [],
        "keywords": [],
        "category": "SHOP",
        "priority": 40,
        "positionSource": "OSM_NODE",
        "freshnessStatus": "SOURCE_ONLY",
        "lastVerifiedAt": null,
        "officialName": null,
        "displayName": "中超华诚超市",
        "labelVisible": true,
        "buildingExternalId": "osm:way:224896131",
        "buildingLinkSource": "POINT_WITHIN_SINGLE_BUILDING"
      },
      "geometry": {
        "type": "Point",
        "coordinates": [
          118.9282438,
          32.1193146
        ]
      }
    },
    {
      "type": "Feature",
      "id": "osm:node:2354475712",
      "properties": {
        "featureType": "POI",
        "campusCode": "NJUPT_XIANLIN",
        "externalId": "osm:node:2354475712",
        "name": "南京邮电大学通达学院",
        "dataSource": "OPENSTREETMAP",
        "verificationStatus": "SOURCE_VERIFIED",
        "sourceId": "osm-xianlin-2026-08-22",
        "sourceUpdatedAt": null,
        "osmType": "node",
        "osmId": 2354475712,
        "aliases": [],
        "keywords": [],
        "category": "OTHER",
        "priority": 40,
        "positionSource": "OSM_NODE",
        "freshnessStatus": "SOURCE_ONLY",
        "lastVerifiedAt": null,
        "officialName": null,
        "displayName": "南京邮电大学通达学院",
        "labelVisible": true
      },
      "geometry": {
        "type": "Point",
        "coordinates": [
          118.9303367,
          32.1182572
        ]
      }
    },
    {
      "type": "Feature",
      "id": "osm:way:223859811:poi",
      "properties": {
        "featureType": "POI",
        "campusCode": "NJUPT_XIANLIN",
        "externalId": "osm:way:223859811:poi",
        "name": "行政楼办公楼",
        "dataSource": "OPENSTREETMAP",
        "verificationStatus": "SOURCE_VERIFIED",
        "sourceId": "osm-xianlin-2026-08-22",
        "sourceUpdatedAt": null,
        "osmType": "way",
        "osmId": 223859811,
        "aliases": [
          "行政南楼"
        ],
        "category": "ADMINISTRATION",
        "officialName": "行政南楼",
        "displayName": "行政南楼",
        "source": "NJUPT_OFFICIAL_SPATIAL_MATCH",
        "sourceUrl": "https://xkb.njupt.edu.cn/10472/list.htm",
        "reviewStatus": "NEEDS_FIELD_CONFIRMATION",
        "reviewedAt": "2026-08-22",
        "notes": "Official source confirms 行政南楼; assignment to southern OSM polygon is a geographic inference.",
        "labelVisible": true,
        "buildingExternalId": "osm:way:223859811",
        "relatedBuildingExternalIds": [
          "osm:way:223859811"
        ],
        "keywords": [],
        "priority": 45,
        "positionSource": "DERIVED_REPRESENTATIVE_POINT"
      },
      "geometry": {
        "type": "Point",
        "coordinates": [
          118.92416942380774,
          32.10793145
        ]
      }
    },
    {
      "type": "Feature",
      "id": "osm:way:223859826:poi",
      "properties": {
        "featureType": "POI",
        "campusCode": "NJUPT_XIANLIN",
        "externalId": "osm:way:223859826:poi",
        "name": "行政楼办公楼",
        "dataSource": "OPENSTREETMAP",
        "verificationStatus": "SOURCE_VERIFIED",
        "sourceId": "osm-xianlin-2026-08-22",
        "sourceUpdatedAt": null,
        "osmType": "way",
        "osmId": 223859826,
        "aliases": [
          "行政北楼"
        ],
        "category": "ADMINISTRATION",
        "officialName": "行政北楼",
        "displayName": "行政北楼",
        "source": "NJUPT_OFFICIAL_SPATIAL_MATCH",
        "sourceUrl": "https://skc.njupt.edu.cn/jgsz/list.htm",
        "reviewStatus": "NEEDS_FIELD_CONFIRMATION",
        "reviewedAt": "2026-08-22",
        "notes": "Official source confirms 行政北楼; assignment to northern OSM polygon is a geographic inference.",
        "labelVisible": true,
        "buildingExternalId": "osm:way:223859826",
        "relatedBuildingExternalIds": [
          "osm:way:223859826"
        ],
        "keywords": [],
        "priority": 45,
        "positionSource": "DERIVED_REPRESENTATIVE_POINT"
      },
      "geometry": {
        "type": "Point",
        "coordinates": [
          118.92467415056726,
          32.10824355
        ]
      }
    },
    {
      "type": "Feature",
      "id": "osm:way:223859784:poi",
      "properties": {
        "featureType": "POI",
        "campusCode": "NJUPT_XIANLIN",
        "externalId": "osm:way:223859784:poi",
        "name": "南邮仙林二食堂",
        "dataSource": "OPENSTREETMAP",
        "verificationStatus": "SOURCE_VERIFIED",
        "sourceId": "osm-xianlin-2026-08-22",
        "sourceUpdatedAt": null,
        "osmType": "way",
        "osmId": 223859784,
        "aliases": [
          "二食堂",
          "仙林二食堂"
        ],
        "category": "DINING",
        "officialName": "仙林二食堂",
        "displayName": "二食堂",
        "source": "NJUPT_OFFICIAL",
        "sourceUrl": "https://hqc.njupt.edu.cn/_t311/2014/0905/c5002a66692/page.htm",
        "reviewStatus": "SOURCE_MATCHED",
        "reviewedAt": "2026-08-22",
        "notes": "Official service page confirms the campus canteen name.",
        "labelVisible": true,
        "buildingExternalId": "osm:way:223859784",
        "relatedBuildingExternalIds": [
          "osm:way:223859784"
        ],
        "keywords": [],
        "priority": 45,
        "positionSource": "DERIVED_REPRESENTATIVE_POINT"
      },
      "geometry": {
        "type": "Point",
        "coordinates": [
          118.92818734094519,
          32.113895
        ]
      }
    },
    {
      "type": "Feature",
      "id": "osm:way:224950590:poi",
      "properties": {
        "featureType": "POI",
        "campusCode": "NJUPT_XIANLIN",
        "externalId": "osm:way:224950590:poi",
        "name": "圆楼",
        "dataSource": "OPENSTREETMAP",
        "verificationStatus": "SOURCE_VERIFIED",
        "sourceId": "osm-xianlin-2026-08-22",
        "sourceUpdatedAt": null,
        "osmType": "way",
        "osmId": 224950590,
        "aliases": [
          "圆楼"
        ],
        "category": "TEACHING",
        "officialName": "圆楼",
        "displayName": "圆楼",
        "source": "NJUPT_OFFICIAL",
        "sourceUrl": "https://www.njupt.edu.cn/2024/0705/c72a267415/page.htm",
        "reviewStatus": "SOURCE_MATCHED",
        "reviewedAt": "2026-08-22",
        "notes": "Official campus notice uses 圆楼.",
        "labelVisible": true,
        "buildingExternalId": "osm:way:224950590",
        "relatedBuildingExternalIds": [
          "osm:way:224950590"
        ],
        "keywords": [],
        "priority": 45,
        "positionSource": "DERIVED_REPRESENTATIVE_POINT"
      },
      "geometry": {
        "type": "Point",
        "coordinates": [
          118.92687683791559,
          32.1093156
        ]
      }
    },
    {
      "type": "Feature",
      "id": "osm:way:1173057051:poi",
      "properties": {
        "featureType": "POI",
        "campusCode": "NJUPT_XIANLIN",
        "externalId": "osm:way:1173057051:poi",
        "name": "自动化学院、人工智能学院",
        "dataSource": "OPENSTREETMAP",
        "verificationStatus": "SOURCE_VERIFIED",
        "sourceId": "osm-xianlin-2026-08-22",
        "sourceUpdatedAt": null,
        "osmType": "way",
        "osmId": 1173057051,
        "aliases": [],
        "category": "TEACHING",
        "officialName": null,
        "displayName": "自动化学院、人工智能学院",
        "labelVisible": true,
        "buildingExternalId": "osm:way:1173057051",
        "relatedBuildingExternalIds": [
          "osm:way:1173057051"
        ],
        "keywords": [],
        "priority": 45,
        "positionSource": "DERIVED_REPRESENTATIVE_POINT"
      },
      "geometry": {
        "type": "Point",
        "coordinates": [
          118.92328435120835,
          32.115808099999995
        ]
      }
    },
    {
      "type": "Feature",
      "id": "osm:way:1390009974:poi",
      "properties": {
        "featureType": "POI",
        "campusCode": "NJUPT_XIANLIN",
        "externalId": "osm:way:1390009974:poi",
        "name": "南邮仙林一食堂",
        "dataSource": "OPENSTREETMAP",
        "verificationStatus": "SOURCE_VERIFIED",
        "sourceId": "osm-xianlin-2026-08-22",
        "sourceUpdatedAt": null,
        "osmType": "way",
        "osmId": 1390009974,
        "aliases": [
          "一食堂",
          "仙林一食堂"
        ],
        "category": "DINING",
        "officialName": "仙林一食堂",
        "displayName": "一食堂",
        "poiGroupId": "xianlin-canteen-1",
        "labelVisible": true,
        "source": "NJUPT_OFFICIAL",
        "sourceUrl": "https://hqc.njupt.edu.cn/_t311/2014/0905/c5002a66692/page.htm",
        "reviewStatus": "SOURCE_MATCHED",
        "reviewedAt": "2026-08-22",
        "notes": "Primary label and POI anchor for three touching building components; geometry is not merged.",
        "buildingExternalId": "osm:way:1390009974",
        "relatedBuildingExternalIds": [
          "osm:way:1390009974",
          "osm:way:1390009973",
          "osm:way:1390009975"
        ],
        "keywords": [],
        "priority": 45,
        "positionSource": "DERIVED_REPRESENTATIVE_POINT"
      },
      "geometry": {
        "type": "Point",
        "coordinates": [
          118.92827133152545,
          32.110799650000004
        ]
      }
    },
    {
      "type": "Feature",
      "id": "osm:way:223859810:poi",
      "properties": {
        "featureType": "POI",
        "campusCode": "NJUPT_XIANLIN",
        "externalId": "osm:way:223859810:poi",
        "name": "图书馆",
        "dataSource": "OPENSTREETMAP",
        "verificationStatus": "SOURCE_VERIFIED",
        "sourceId": "osm-xianlin-2026-08-22",
        "sourceUpdatedAt": null,
        "osmType": "way",
        "osmId": 223859810,
        "aliases": [
          "图书馆",
          "仙林图书馆",
          "仙林校区图书馆"
        ],
        "category": "LIBRARY",
        "officialName": "仙林校区图书馆",
        "displayName": "图书馆",
        "source": "NJUPT_OFFICIAL",
        "sourceUrl": "https://lib.njupt.edu.cn/1384/list.htm",
        "reviewStatus": "SOURCE_MATCHED",
        "reviewedAt": "2026-08-22",
        "notes": "Official library page confirms campus name.",
        "labelVisible": true,
        "buildingExternalId": "osm:way:223859810",
        "relatedBuildingExternalIds": [
          "osm:way:223859810"
        ],
        "keywords": [],
        "priority": 45,
        "positionSource": "DERIVED_REPRESENTATIVE_POINT"
      },
      "geometry": {
        "type": "Point",
        "coordinates": [
          118.92690810151024,
          32.11403335
        ]
      }
    },
    {
      "type": "Feature",
      "id": "osm:way:1173057050:poi",
      "properties": {
        "featureType": "POI",
        "campusCode": "NJUPT_XIANLIN",
        "externalId": "osm:way:1173057050:poi",
        "name": "电子与光学工程学院、柔性材料（未来技术）学院",
        "dataSource": "OPENSTREETMAP",
        "verificationStatus": "SOURCE_VERIFIED",
        "sourceId": "osm-xianlin-2026-08-22",
        "sourceUpdatedAt": null,
        "osmType": "way",
        "osmId": 1173057050,
        "aliases": [],
        "category": "TEACHING",
        "officialName": null,
        "displayName": "电子与光学工程学院、柔性材料（未来技术）学院",
        "labelVisible": false,
        "buildingExternalId": "osm:way:1173057050",
        "relatedBuildingExternalIds": [
          "osm:way:1173057050"
        ],
        "keywords": [],
        "priority": 45,
        "positionSource": "DERIVED_REPRESENTATIVE_POINT"
      },
      "geometry": {
        "type": "Point",
        "coordinates": [
          118.92387204219938,
          32.1154508
        ]
      }
    },
    {
      "type": "Feature",
      "id": "osm:way:1173057052:poi",
      "properties": {
        "featureType": "POI",
        "campusCode": "NJUPT_XIANLIN",
        "externalId": "osm:way:1173057052:poi",
        "name": "地理与生物信息学院",
        "dataSource": "OPENSTREETMAP",
        "verificationStatus": "SOURCE_VERIFIED",
        "sourceId": "osm-xianlin-2026-08-22",
        "sourceUpdatedAt": null,
        "osmType": "way",
        "osmId": 1173057052,
        "aliases": [],
        "category": "TEACHING",
        "officialName": null,
        "displayName": "地理与生物信息学院",
        "labelVisible": true,
        "buildingExternalId": "osm:way:1173057052",
        "relatedBuildingExternalIds": [
          "osm:way:1173057052"
        ],
        "keywords": [],
        "priority": 45,
        "positionSource": "DERIVED_REPRESENTATIVE_POINT"
      },
      "geometry": {
        "type": "Point",
        "coordinates": [
          118.92407821831912,
          32.11617405
        ]
      }
    },
    {
      "type": "Feature",
      "id": "osm:way:1173057053:poi",
      "properties": {
        "featureType": "POI",
        "campusCode": "NJUPT_XIANLIN",
        "externalId": "osm:way:1173057053:poi",
        "name": "集成电路科学与工程学院",
        "dataSource": "OPENSTREETMAP",
        "verificationStatus": "SOURCE_VERIFIED",
        "sourceId": "osm-xianlin-2026-08-22",
        "sourceUpdatedAt": null,
        "osmType": "way",
        "osmId": 1173057053,
        "aliases": [],
        "category": "TEACHING",
        "officialName": null,
        "displayName": "集成电路科学与工程学院",
        "labelVisible": true,
        "buildingExternalId": "osm:way:1173057053",
        "relatedBuildingExternalIds": [
          "osm:way:1173057053"
        ],
        "keywords": [],
        "priority": 45,
        "positionSource": "DERIVED_REPRESENTATIVE_POINT"
      },
      "geometry": {
        "type": "Point",
        "coordinates": [
          118.92300890120836,
          32.116211899999996
        ]
      }
    },
    {
      "type": "Feature",
      "id": "osm:way:1173057054:poi",
      "properties": {
        "featureType": "POI",
        "campusCode": "NJUPT_XIANLIN",
        "externalId": "osm:way:1173057054:poi",
        "name": "工程实验教学部",
        "dataSource": "OPENSTREETMAP",
        "verificationStatus": "SOURCE_VERIFIED",
        "sourceId": "osm-xianlin-2026-08-22",
        "sourceUpdatedAt": null,
        "osmType": "way",
        "osmId": 1173057054,
        "aliases": [],
        "category": "TEACHING",
        "officialName": null,
        "displayName": "工程实验教学部",
        "labelVisible": true,
        "buildingExternalId": "osm:way:1173057054",
        "relatedBuildingExternalIds": [
          "osm:way:1173057054"
        ],
        "keywords": [],
        "priority": 45,
        "positionSource": "DERIVED_REPRESENTATIVE_POINT"
      },
      "geometry": {
        "type": "Point",
        "coordinates": [
          118.92384473956258,
          32.1166085
        ]
      }
    },
    {
      "type": "Feature",
      "id": "osm:way:1173057055:poi",
      "properties": {
        "featureType": "POI",
        "campusCode": "NJUPT_XIANLIN",
        "externalId": "osm:way:1173057055:poi",
        "name": "计算机学院、软件学院、网络空间安全学院",
        "dataSource": "OPENSTREETMAP",
        "verificationStatus": "SOURCE_VERIFIED",
        "sourceId": "osm-xianlin-2026-08-22",
        "sourceUpdatedAt": null,
        "osmType": "way",
        "osmId": 1173057055,
        "aliases": [],
        "category": "TEACHING",
        "officialName": null,
        "displayName": "计算机学院、软件学院、网络空间安全学院",
        "labelVisible": false,
        "buildingExternalId": "osm:way:1173057055",
        "relatedBuildingExternalIds": [
          "osm:way:1173057055"
        ],
        "keywords": [],
        "priority": 45,
        "positionSource": "DERIVED_REPRESENTATIVE_POINT"
      },
      "geometry": {
        "type": "Point",
        "coordinates": [
          118.92327876205076,
          32.117176349999994
        ]
      }
    },
    {
      "type": "Feature",
      "id": "osm:way:1173057056:poi",
      "properties": {
        "featureType": "POI",
        "campusCode": "NJUPT_XIANLIN",
        "externalId": "osm:way:1173057056:poi",
        "name": "南京邮电大学-文科楼",
        "dataSource": "OPENSTREETMAP",
        "verificationStatus": "SOURCE_VERIFIED",
        "sourceId": "osm-xianlin-2026-08-22",
        "sourceUpdatedAt": null,
        "osmType": "way",
        "osmId": 1173057056,
        "aliases": [
          "文科楼"
        ],
        "category": "TEACHING",
        "officialName": "文科楼",
        "displayName": "文科楼",
        "source": "NJUPT_OFFICIAL",
        "sourceUrl": "https://www.njupt.edu.cn/2024/0705/c72a267415/page.htm",
        "reviewStatus": "SOURCE_MATCHED",
        "reviewedAt": "2026-08-22",
        "notes": "Official campus page uses 文科楼; the longer OSM institution prefix remains in compatible name.",
        "labelVisible": true,
        "buildingExternalId": "osm:way:1173057056",
        "relatedBuildingExternalIds": [
          "osm:way:1173057056"
        ],
        "keywords": [],
        "priority": 45,
        "positionSource": "DERIVED_REPRESENTATIVE_POINT"
      },
      "geometry": {
        "type": "Point",
        "coordinates": [
          118.92402584085144,
          32.11742755
        ]
      }
    },
    {
      "type": "Feature",
      "id": "osm:way:1173059720:poi",
      "properties": {
        "featureType": "POI",
        "campusCode": "NJUPT_XIANLIN",
        "externalId": "osm:way:1173059720:poi",
        "name": "材料科学与工程学院-新大楼",
        "dataSource": "OPENSTREETMAP",
        "verificationStatus": "SOURCE_VERIFIED",
        "sourceId": "osm-xianlin-2026-08-22",
        "sourceUpdatedAt": null,
        "osmType": "way",
        "osmId": 1173059720,
        "aliases": [],
        "category": "TEACHING",
        "officialName": null,
        "displayName": "材料科学与工程学院-新大楼",
        "labelVisible": true,
        "buildingExternalId": "osm:way:1173059720",
        "relatedBuildingExternalIds": [
          "osm:way:1173059720"
        ],
        "keywords": [],
        "priority": 45,
        "positionSource": "DERIVED_REPRESENTATIVE_POINT"
      },
      "geometry": {
        "type": "Point",
        "coordinates": [
          118.92395098750188,
          32.118103250000004
        ]
      }
    },
    {
      "type": "Feature",
      "id": "osm:way:1281082570:poi",
      "properties": {
        "featureType": "POI",
        "campusCode": "NJUPT_XIANLIN",
        "externalId": "osm:way:1281082570:poi",
        "name": "新体育馆",
        "dataSource": "OPENSTREETMAP",
        "verificationStatus": "SOURCE_VERIFIED",
        "sourceId": "osm-xianlin-2026-08-22",
        "sourceUpdatedAt": null,
        "osmType": "way",
        "osmId": 1281082570,
        "aliases": [
          "新体育馆"
        ],
        "category": "SPORT",
        "officialName": "新体育馆",
        "displayName": "新体育馆",
        "source": "OPENSTREETMAP",
        "sourceUrl": "https://www.openstreetmap.org/way/1281082570",
        "reviewStatus": "SOURCE_ONLY",
        "reviewedAt": "2026-08-22",
        "notes": "Explicit OSM name retained; field verification remains desirable.",
        "labelVisible": true,
        "buildingExternalId": "osm:way:1281082570",
        "relatedBuildingExternalIds": [
          "osm:way:1281082570"
        ],
        "keywords": [],
        "priority": 45,
        "positionSource": "DERIVED_REPRESENTATIVE_POINT"
      },
      "geometry": {
        "type": "Point",
        "coordinates": [
          118.92457729906951,
          32.11962815
        ]
      }
    },
    {
      "type": "Feature",
      "id": "osm:way:223859852:poi",
      "properties": {
        "featureType": "POI",
        "campusCode": "NJUPT_XIANLIN",
        "externalId": "osm:way:223859852:poi",
        "name": "收发室",
        "dataSource": "OPENSTREETMAP",
        "verificationStatus": "SOURCE_VERIFIED",
        "sourceId": "osm-xianlin-2026-08-22",
        "sourceUpdatedAt": null,
        "osmType": "way",
        "osmId": 223859852,
        "aliases": [],
        "category": "ADMINISTRATION",
        "officialName": null,
        "displayName": "收发室",
        "labelVisible": true,
        "buildingExternalId": "osm:way:223859852",
        "relatedBuildingExternalIds": [
          "osm:way:223859852"
        ],
        "keywords": [],
        "priority": 45,
        "positionSource": "DERIVED_REPRESENTATIVE_POINT"
      },
      "geometry": {
        "type": "Point",
        "coordinates": [
          118.93035650367177,
          32.11809325
        ]
      }
    },
    {
      "type": "Feature",
      "id": "osm:way:224896131:poi",
      "properties": {
        "featureType": "POI",
        "campusCode": "NJUPT_XIANLIN",
        "externalId": "osm:way:224896131:poi",
        "name": "南邮仙林三食堂",
        "dataSource": "OPENSTREETMAP",
        "verificationStatus": "SOURCE_VERIFIED",
        "sourceId": "osm-xianlin-2026-08-22",
        "sourceUpdatedAt": null,
        "osmType": "way",
        "osmId": 224896131,
        "aliases": [
          "三食堂",
          "仙林三食堂"
        ],
        "category": "DINING",
        "officialName": "仙林三食堂",
        "displayName": "三食堂",
        "source": "NJUPT_OFFICIAL",
        "sourceUrl": "https://hqc.njupt.edu.cn/_t311/2014/0905/c5002a66692/page.htm",
        "reviewStatus": "SOURCE_MATCHED",
        "reviewedAt": "2026-08-22",
        "notes": "Official service page confirms the campus canteen name.",
        "labelVisible": true,
        "buildingExternalId": "osm:way:224896131",
        "relatedBuildingExternalIds": [
          "osm:way:224896131"
        ],
        "keywords": [],
        "priority": 45,
        "positionSource": "DERIVED_REPRESENTATIVE_POINT"
      },
      "geometry": {
        "type": "Point",
        "coordinates": [
          118.92815667400419,
          32.11962095
        ]
      }
    }
  ]
}
