{
  "type": "FeatureCollection",
  "name": "unverified-pois",
  "metadata": {
    "generatedAt": "2026-08-22",
    "purpose": "MANUAL_REVIEW_ONLY",
    "appliesChanges": false
  },
  "features": [
    {
      "type": "Feature",
      "id": "unverified:osm:node:2342909622",
      "geometry": {
        "type": "Point",
        "coordinates": [
          118.927947,
          32.1132619
        ]
      },
      "properties": {
        "reviewId": "unverified:osm:node:2342909622",
        "severity": "P2",
        "reason": "POI has source validation but no manual or field verification.",
        "sourceObjectId": "osm:node:2342909622",
        "name": "恋之味",
        "verificationStatus": "PENDING_REVIEW",
        "notes": "",
        "category": "DINING",
        "dataSource": "OPENSTREETMAP",
        "currentVerificationStatus": "SOURCE_VERIFIED",
        "freshnessStatus": "SOURCE_ONLY"
      }
    },
    {
      "type": "Feature",
      "id": "unverified:osm:node:2342909624",
      "geometry": {
        "type": "Point",
        "coordinates": [
          118.9279285,
          32.1130926
        ]
      },
      "properties": {
        "reviewId": "unverified:osm:node:2342909624",
        "severity": "P2",
        "reason": "POI has source validation but no manual or field verification.",
        "sourceObjectId": "osm:node:2342909624",
        "name": "卧具洗衣房",
        "verificationStatus": "PENDING_REVIEW",
        "notes": "",
        "category": "SHOP",
        "dataSource": "OPENSTREETMAP",
        "currentVerificationStatus": "SOURCE_VERIFIED",
        "freshnessStatus": "SOURCE_ONLY"
      }
    },
    {
      "type": "Feature",
      "id": "unverified:osm:node:2342909628",
      "geometry": {
        "type": "Point",
        "coordinates": [
          118.9279269,
          32.1127706
        ]
      },
      "properties": {
        "reviewId": "unverified:osm:node:2342909628",
        "severity": "P2",
        "reason": "POI has source validation but no manual or field verification.",
        "sourceObjectId": "osm:node:2342909628",
        "name": "中信银行ATM",
        "verificationStatus": "PENDING_REVIEW",
        "notes": "",
        "category": "SERVICE",
        "dataSource": "OPENSTREETMAP",
        "currentVerificationStatus": "SOURCE_VERIFIED",
        "freshnessStatus": "SOURCE_ONLY"
      }
    },
    {
      "type": "Feature",
      "id": "unverified:osm:node:2342909630",
      "geometry": {
        "type": "Point",
        "coordinates": [
          118.9279284,
          32.1124105
        ]
      },
      "properties": {
        "reviewId": "unverified:osm:node:2342909630",
        "severity": "P2",
        "reason": "POI has source validation but no manual or field verification.",
        "sourceObjectId": "osm:node:2342909630",
        "name": "苏果好的便利店",
        "verificationStatus": "PENDING_REVIEW",
        "notes": "",
        "category": "SHOP",
        "dataSource": "OPENSTREETMAP",
        "currentVerificationStatus": "SOURCE_VERIFIED",
        "freshnessStatus": "SOURCE_ONLY"
      }
    },
    {
      "type": "Feature",
      "id": "unverified:osm:node:2342909633",
      "geometry": {
        "type": "Point",
        "coordinates": [
          118.9279709,
          32.1119996
        ]
      },
      "properties": {
        "reviewId": "unverified:osm:node:2342909633",
        "severity": "P2",
        "reason": "POI has source validation but no manual or field verification.",
        "sourceObjectId": "osm:node:2342909633",
        "name": "一鸣真鲜奶吧",
        "verificationStatus": "PENDING_REVIEW",
        "notes": "",
        "category": "SHOP",
        "dataSource": "OPENSTREETMAP",
        "currentVerificationStatus": "SOURCE_VERIFIED",
        "freshnessStatus": "SOURCE_ONLY"
      }
    },
    {
      "type": "Feature",
      "id": "unverified:osm:node:2342909634",
      "geometry": {
        "type": "Point",
        "coordinates": [
          118.9279767,
          32.1119489
        ]
      },
      "properties": {
        "reviewId": "unverified:osm:node:2342909634",
        "severity": "P2",
        "reason": "POI has source validation but no manual or field verification.",
        "sourceObjectId": "osm:node:2342909634",
        "name": "图文中心",
        "verificationStatus": "PENDING_REVIEW",
        "notes": "",
        "category": "SHOP",
        "dataSource": "OPENSTREETMAP",
        "currentVerificationStatus": "SOURCE_VERIFIED",
        "freshnessStatus": "SOURCE_ONLY"
      }
    },
    {
      "type": "Feature",
      "id": "unverified:osm:node:2342909635",
      "geometry": {
        "type": "Point",
        "coordinates": [
          118.9279816,
          32.1119081
        ]
      },
      "properties": {
        "reviewId": "unverified:osm:node:2342909635",
        "severity": "P2",
        "reason": "POI has source validation but no manual or field verification.",
        "sourceObjectId": "osm:node:2342909635",
        "name": "茶心语",
        "verificationStatus": "PENDING_REVIEW",
        "notes": "",
        "category": "SHOP",
        "dataSource": "OPENSTREETMAP",
        "currentVerificationStatus": "SOURCE_VERIFIED",
        "freshnessStatus": "SOURCE_ONLY"
      }
    },
    {
      "type": "Feature",
      "id": "unverified:osm:node:2342909636",
      "geometry": {
        "type": "Point",
        "coordinates": [
          118.9279893,
          32.1118656
        ]
      },
      "properties": {
        "reviewId": "unverified:osm:node:2342909636",
        "severity": "P2",
        "reason": "POI has source validation but no manual or field verification.",
        "sourceObjectId": "osm:node:2342909636",
        "name": "美家乐汉堡店",
        "verificationStatus": "PENDING_REVIEW",
        "notes": "",
        "category": "DINING",
        "dataSource": "OPENSTREETMAP",
        "currentVerificationStatus": "SOURCE_VERIFIED",
        "freshnessStatus": "SOURCE_ONLY"
      }
    },
    {
      "type": "Feature",
      "id": "unverified:osm:node:2342909638",
      "geometry": {
        "type": "Point",
        "coordinates": [
          118.9280387,
          32.1116092
        ]
      },
      "properties": {
        "reviewId": "unverified:osm:node:2342909638",
        "severity": "P2",
        "reason": "POI has source validation but no manual or field verification.",
        "sourceObjectId": "osm:node:2342909638",
        "name": "中国联通",
        "verificationStatus": "PENDING_REVIEW",
        "notes": "",
        "category": "SHOP",
        "dataSource": "OPENSTREETMAP",
        "currentVerificationStatus": "SOURCE_VERIFIED",
        "freshnessStatus": "SOURCE_ONLY"
      }
    },
    {
      "type": "Feature",
      "id": "unverified:osm:node:2342909639",
      "geometry": {
        "type": "Point",
        "coordinates": [
          118.9280435,
          32.1115812
        ]
      },
      "properties": {
        "reviewId": "unverified:osm:node:2342909639",
        "severity": "P2",
        "reason": "POI has source validation but no manual or field verification.",
        "sourceObjectId": "osm:node:2342909639",
        "name": "波浪湾",
        "verificationStatus": "PENDING_REVIEW",
        "notes": "",
        "category": "SHOP",
        "dataSource": "OPENSTREETMAP",
        "currentVerificationStatus": "SOURCE_VERIFIED",
        "freshnessStatus": "SOURCE_ONLY"
      }
    },
    {
      "type": "Feature",
      "id": "unverified:osm:node:2342909640",
      "geometry": {
        "type": "Point",
        "coordinates": [
          118.9280498,
          32.1115578
        ]
      },
      "properties": {
        "reviewId": "unverified:osm:node:2342909640",
        "severity": "P2",
        "reason": "POI has source validation but no manual or field verification.",
        "sourceObjectId": "osm:node:2342909640",
        "name": "校园眼镜",
        "verificationStatus": "PENDING_REVIEW",
        "notes": "",
        "category": "SHOP",
        "dataSource": "OPENSTREETMAP",
        "currentVerificationStatus": "SOURCE_VERIFIED",
        "freshnessStatus": "SOURCE_ONLY"
      }
    },
    {
      "type": "Feature",
      "id": "unverified:osm:node:2342909641",
      "geometry": {
        "type": "Point",
        "coordinates": [
          118.928087,
          32.1114209
        ]
      },
      "properties": {
        "reviewId": "unverified:osm:node:2342909641",
        "severity": "P2",
        "reason": "POI has source validation but no manual or field verification.",
        "sourceObjectId": "osm:node:2342909641",
        "name": "邮苑书店",
        "verificationStatus": "PENDING_REVIEW",
        "notes": "",
        "category": "SHOP",
        "dataSource": "OPENSTREETMAP",
        "currentVerificationStatus": "SOURCE_VERIFIED",
        "freshnessStatus": "SOURCE_ONLY"
      }
    },
    {
      "type": "Feature",
      "id": "unverified:osm:node:2342909642",
      "geometry": {
        "type": "Point",
        "coordinates": [
          118.9281135,
          32.1113413
        ]
      },
      "properties": {
        "reviewId": "unverified:osm:node:2342909642",
        "severity": "P2",
        "reason": "POI has source validation but no manual or field verification.",
        "sourceObjectId": "osm:node:2342909642",
        "name": "HOTDOG吧",
        "verificationStatus": "PENDING_REVIEW",
        "notes": "",
        "category": "DINING",
        "dataSource": "OPENSTREETMAP",
        "currentVerificationStatus": "SOURCE_VERIFIED",
        "freshnessStatus": "SOURCE_ONLY"
      }
    },
    {
      "type": "Feature",
      "id": "unverified:osm:node:2340727810",
      "geometry": {
        "type": "Point",
        "coordinates": [
          118.9293186,
          32.1139546
        ]
      },
      "properties": {
        "reviewId": "unverified:osm:node:2340727810",
        "severity": "P0",
        "reason": "POI has source validation but no manual or field verification.",
        "sourceObjectId": "osm:node:2340727810",
        "name": "南邮仙林四食堂",
        "verificationStatus": "PENDING_REVIEW",
        "notes": "",
        "category": "DINING",
        "dataSource": "OPENSTREETMAP",
        "currentVerificationStatus": "SOURCE_VERIFIED",
        "freshnessStatus": "SOURCE_ONLY"
      }
    },
    {
      "type": "Feature",
      "id": "unverified:osm:node:2357066955",
      "geometry": {
        "type": "Point",
        "coordinates": [
          118.9285265,
          32.1103694
        ]
      },
      "properties": {
        "reviewId": "unverified:osm:node:2357066955",
        "severity": "P2",
        "reason": "POI has source validation but no manual or field verification.",
        "sourceObjectId": "osm:node:2357066955",
        "name": "仙林湾",
        "verificationStatus": "PENDING_REVIEW",
        "notes": "",
        "category": "DINING",
        "dataSource": "OPENSTREETMAP",
        "currentVerificationStatus": "SOURCE_VERIFIED",
        "freshnessStatus": "SOURCE_ONLY"
      }
    },
    {
      "type": "Feature",
      "id": "unverified:osm:node:2354471368",
      "geometry": {
        "type": "Point",
        "coordinates": [
          118.9277195,
          32.1200773
        ]
      },
      "properties": {
        "reviewId": "unverified:osm:node:2354471368",
        "severity": "P2",
        "reason": "POI has source validation but no manual or field verification.",
        "sourceObjectId": "osm:node:2354471368",
        "name": "南邮置业",
        "verificationStatus": "PENDING_REVIEW",
        "notes": "",
        "category": "SHOP",
        "dataSource": "OPENSTREETMAP",
        "currentVerificationStatus": "SOURCE_VERIFIED",
        "freshnessStatus": "SOURCE_ONLY"
      }
    },
    {
      "type": "Feature",
      "id": "unverified:osm:node:11432612369",
      "geometry": {
        "type": "Point",
        "coordinates": [
          118.9277927,
          32.1201135
        ]
      },
      "properties": {
        "reviewId": "unverified:osm:node:11432612369",
        "severity": "P2",
        "reason": "POI has source validation but no manual or field verification.",
        "sourceObjectId": "osm:node:11432612369",
        "name": "麦当劳",
        "verificationStatus": "PENDING_REVIEW",
        "notes": "",
        "category": "DINING",
        "dataSource": "OPENSTREETMAP",
        "currentVerificationStatus": "SOURCE_VERIFIED",
        "freshnessStatus": "SOURCE_ONLY"
      }
    },
    {
      "type": "Feature",
      "id": "unverified:osm:node:2340193687",
      "geometry": {
        "type": "Point",
        "coordinates": [
          118.9282438,
          32.1193146
        ]
      },
      "properties": {
        "reviewId": "unverified:osm:node:2340193687",
        "severity": "P2",
        "reason": "POI has source validation but no manual or field verification.",
        "sourceObjectId": "osm:node:2340193687",
        "name": "中超华诚超市",
        "verificationStatus": "PENDING_REVIEW",
        "notes": "",
        "category": "SHOP",
        "dataSource": "OPENSTREETMAP",
        "currentVerificationStatus": "SOURCE_VERIFIED",
        "freshnessStatus": "SOURCE_ONLY"
      }
    },
    {
      "type": "Feature",
      "id": "unverified:osm:node:2354475712",
      "geometry": {
        "type": "Point",
        "coordinates": [
          118.9303367,
          32.1182572
        ]
      },
      "properties": {
        "reviewId": "unverified:osm:node:2354475712",
        "severity": "P2",
        "reason": "POI has source validation but no manual or field verification.",
        "sourceObjectId": "osm:node:2354475712",
        "name": "南京邮电大学通达学院",
        "verificationStatus": "PENDING_REVIEW",
        "notes": "",
        "category": "OTHER",
        "dataSource": "OPENSTREETMAP",
        "currentVerificationStatus": "SOURCE_VERIFIED",
        "freshnessStatus": "SOURCE_ONLY"
      }
    },
    {
      "type": "Feature",
      "id": "unverified:osm:way:223859811:poi",
      "geometry": {
        "type": "Point",
        "coordinates": [
          118.92416942380774,
          32.10793145
        ]
      },
      "properties": {
        "reviewId": "unverified:osm:way:223859811:poi",
        "severity": "P0",
        "reason": "POI has source validation but no manual or field verification.",
        "sourceObjectId": "osm:way:223859811:poi",
        "name": "行政楼办公楼",
        "verificationStatus": "PENDING_REVIEW",
        "notes": "",
        "category": "ADMINISTRATION",
        "dataSource": "OPENSTREETMAP",
        "currentVerificationStatus": "SOURCE_VERIFIED",
        "freshnessStatus": null
      }
    },
    {
      "type": "Feature",
      "id": "unverified:osm:way:223859826:poi",
      "geometry": {
        "type": "Point",
        "coordinates": [
          118.92467415056726,
          32.10824355
        ]
      },
      "properties": {
        "reviewId": "unverified:osm:way:223859826:poi",
        "severity": "P0",
        "reason": "POI has source validation but no manual or field verification.",
        "sourceObjectId": "osm:way:223859826:poi",
        "name": "行政楼办公楼",
        "verificationStatus": "PENDING_REVIEW",
        "notes": "",
        "category": "ADMINISTRATION",
        "dataSource": "OPENSTREETMAP",
        "currentVerificationStatus": "SOURCE_VERIFIED",
        "freshnessStatus": null
      }
    },
    {
      "type": "Feature",
      "id": "unverified:osm:way:223859784:poi",
      "geometry": {
        "type": "Point",
        "coordinates": [
          118.92818734094519,
          32.113895
        ]
      },
      "properties": {
        "reviewId": "unverified:osm:way:223859784:poi",
        "severity": "P0",
        "reason": "POI has source validation but no manual or field verification.",
        "sourceObjectId": "osm:way:223859784:poi",
        "name": "南邮仙林二食堂",
        "verificationStatus": "PENDING_REVIEW",
        "notes": "",
        "category": "DINING",
        "dataSource": "OPENSTREETMAP",
        "currentVerificationStatus": "SOURCE_VERIFIED",
        "freshnessStatus": null
      }
    },
    {
      "type": "Feature",
      "id": "unverified:osm:way:224950590:poi",
      "geometry": {
        "type": "Point",
        "coordinates": [
          118.92687683791559,
          32.1093156
        ]
      },
      "properties": {
        "reviewId": "unverified:osm:way:224950590:poi",
        "severity": "P0",
        "reason": "POI has source validation but no manual or field verification.",
        "sourceObjectId": "osm:way:224950590:poi",
        "name": "圆楼",
        "verificationStatus": "PENDING_REVIEW",
        "notes": "",
        "category": "TEACHING",
        "dataSource": "OPENSTREETMAP",
        "currentVerificationStatus": "SOURCE_VERIFIED",
        "freshnessStatus": null
      }
    },
    {
      "type": "Feature",
      "id": "unverified:osm:way:1173057051:poi",
      "geometry": {
        "type": "Point",
        "coordinates": [
          118.92328435120835,
          32.115808099999995
        ]
      },
      "properties": {
        "reviewId": "unverified:osm:way:1173057051:poi",
        "severity": "P0",
        "reason": "POI has source validation but no manual or field verification.",
        "sourceObjectId": "osm:way:1173057051:poi",
        "name": "自动化学院、人工智能学院",
        "verificationStatus": "PENDING_REVIEW",
        "notes": "",
        "category": "TEACHING",
        "dataSource": "OPENSTREETMAP",
        "currentVerificationStatus": "SOURCE_VERIFIED",
        "freshnessStatus": null
      }
    },
    {
      "type": "Feature",
      "id": "unverified:osm:way:1390009974:poi",
      "geometry": {
        "type": "Point",
        "coordinates": [
          118.92827133152545,
          32.110799650000004
        ]
      },
      "properties": {
        "reviewId": "unverified:osm:way:1390009974:poi",
        "severity": "P0",
        "reason": "POI has source validation but no manual or field verification.",
        "sourceObjectId": "osm:way:1390009974:poi",
        "name": "南邮仙林一食堂",
        "verificationStatus": "PENDING_REVIEW",
        "notes": "",
        "category": "DINING",
        "dataSource": "OPENSTREETMAP",
        "currentVerificationStatus": "SOURCE_VERIFIED",
        "freshnessStatus": null
      }
    },
    {
      "type": "Feature",
      "id": "unverified:osm:way:223859810:poi",
      "geometry": {
        "type": "Point",
        "coordinates": [
          118.92690810151024,
          32.11403335
        ]
      },
      "properties": {
        "reviewId": "unverified:osm:way:223859810:poi",
        "severity": "P0",
        "reason": "POI has source validation but no manual or field verification.",
        "sourceObjectId": "osm:way:223859810:poi",
        "name": "图书馆",
        "verificationStatus": "PENDING_REVIEW",
        "notes": "",
        "category": "LIBRARY",
        "dataSource": "OPENSTREETMAP",
        "currentVerificationStatus": "SOURCE_VERIFIED",
        "freshnessStatus": null
      }
    },
    {
      "type": "Feature",
      "id": "unverified:osm:way:1173057050:poi",
      "geometry": {
        "type": "Point",
        "coordinates": [
          118.92387204219938,
          32.1154508
        ]
      },
      "properties": {
        "reviewId": "unverified:osm:way:1173057050:poi",
        "severity": "P0",
        "reason": "POI has source validation but no manual or field verification.",
        "sourceObjectId": "osm:way:1173057050:poi",
        "name": "电子与光学工程学院、柔性材料（未来技术）学院",
        "verificationStatus": "PENDING_REVIEW",
        "notes": "",
        "category": "TEACHING",
        "dataSource": "OPENSTREETMAP",
        "currentVerificationStatus": "SOURCE_VERIFIED",
        "freshnessStatus": null
      }
    },
    {
      "type": "Feature",
      "id": "unverified:osm:way:1390009973:poi",
      "geometry": {
        "type": "Point",
        "coordinates": [
          118.92857083546326,
          32.1103804
        ]
      },
      "properties": {
        "reviewId": "unverified:osm:way:1390009973:poi",
        "severity": "P0",
        "reason": "POI has source validation but no manual or field verification.",
        "sourceObjectId": "osm:way:1390009973:poi",
        "name": "南邮仙林一食堂",
        "verificationStatus": "PENDING_REVIEW",
        "notes": "",
        "category": "DINING",
        "dataSource": "OPENSTREETMAP",
        "currentVerificationStatus": "SOURCE_VERIFIED",
        "freshnessStatus": null
      }
    },
    {
      "type": "Feature",
      "id": "unverified:osm:way:1390009975:poi",
      "geometry": {
        "type": "Point",
        "coordinates": [
          118.92856245687506,
          32.110768300000004
        ]
      },
      "properties": {
        "reviewId": "unverified:osm:way:1390009975:poi",
        "severity": "P0",
        "reason": "POI has source validation but no manual or field verification.",
        "sourceObjectId": "osm:way:1390009975:poi",
        "name": "南邮仙林一食堂",
        "verificationStatus": "PENDING_REVIEW",
        "notes": "",
        "category": "DINING",
        "dataSource": "OPENSTREETMAP",
        "currentVerificationStatus": "SOURCE_VERIFIED",
        "freshnessStatus": null
      }
    },
    {
      "type": "Feature",
      "id": "unverified:osm:way:1173057052:poi",
      "geometry": {
        "type": "Point",
        "coordinates": [
          118.92407821831912,
          32.11617405
        ]
      },
      "properties": {
        "reviewId": "unverified:osm:way:1173057052:poi",
        "severity": "P0",
        "reason": "POI has source validation but no manual or field verification.",
        "sourceObjectId": "osm:way:1173057052:poi",
        "name": "地理与生物信息学院",
        "verificationStatus": "PENDING_REVIEW",
        "notes": "",
        "category": "TEACHING",
        "dataSource": "OPENSTREETMAP",
        "currentVerificationStatus": "SOURCE_VERIFIED",
        "freshnessStatus": null
      }
    },
    {
      "type": "Feature",
      "id": "unverified:osm:way:1173057053:poi",
      "geometry": {
        "type": "Point",
        "coordinates": [
          118.92300890120836,
          32.116211899999996
        ]
      },
      "properties": {
        "reviewId": "unverified:osm:way:1173057053:poi",
        "severity": "P0",
        "reason": "POI has source validation but no manual or field verification.",
        "sourceObjectId": "osm:way:1173057053:poi",
        "name": "集成电路科学与工程学院",
        "verificationStatus": "PENDING_REVIEW",
        "notes": "",
        "category": "TEACHING",
        "dataSource": "OPENSTREETMAP",
        "currentVerificationStatus": "SOURCE_VERIFIED",
        "freshnessStatus": null
      }
    },
    {
      "type": "Feature",
      "id": "unverified:osm:way:1173057054:poi",
      "geometry": {
        "type": "Point",
        "coordinates": [
          118.92384473956258,
          32.1166085
        ]
      },
      "properties": {
        "reviewId": "unverified:osm:way:1173057054:poi",
        "severity": "P0",
        "reason": "POI has source validation but no manual or field verification.",
        "sourceObjectId": "osm:way:1173057054:poi",
        "name": "工程实验教学部",
        "verificationStatus": "PENDING_REVIEW",
        "notes": "",
        "category": "TEACHING",
        "dataSource": "OPENSTREETMAP",
        "currentVerificationStatus": "SOURCE_VERIFIED",
        "freshnessStatus": null
      }
    },
    {
      "type": "Feature",
      "id": "unverified:osm:way:1173057055:poi",
      "geometry": {
        "type": "Point",
        "coordinates": [
          118.92327876205076,
          32.117176349999994
        ]
      },
      "properties": {
        "reviewId": "unverified:osm:way:1173057055:poi",
        "severity": "P0",
        "reason": "POI has source validation but no manual or field verification.",
        "sourceObjectId": "osm:way:1173057055:poi",
        "name": "计算机学院、软件学院、网络空间安全学院",
        "verificationStatus": "PENDING_REVIEW",
        "notes": "",
        "category": "TEACHING",
        "dataSource": "OPENSTREETMAP",
        "currentVerificationStatus": "SOURCE_VERIFIED",
        "freshnessStatus": null
      }
    },
    {
      "type": "Feature",
      "id": "unverified:osm:way:1173057056:poi",
      "geometry": {
        "type": "Point",
        "coordinates": [
          118.92402584085144,
          32.11742755
        ]
      },
      "properties": {
        "reviewId": "unverified:osm:way:1173057056:poi",
        "severity": "P0",
        "reason": "POI has source validation but no manual or field verification.",
        "sourceObjectId": "osm:way:1173057056:poi",
        "name": "南京邮电大学-文科楼",
        "verificationStatus": "PENDING_REVIEW",
        "notes": "",
        "category": "TEACHING",
        "dataSource": "OPENSTREETMAP",
        "currentVerificationStatus": "SOURCE_VERIFIED",
        "freshnessStatus": null
      }
    },
    {
      "type": "Feature",
      "id": "unverified:osm:way:1173059720:poi",
      "geometry": {
        "type": "Point",
        "coordinates": [
          118.92395098750188,
          32.118103250000004
        ]
      },
      "properties": {
        "reviewId": "unverified:osm:way:1173059720:poi",
        "severity": "P0",
        "reason": "POI has source validation but no manual or field verification.",
        "sourceObjectId": "osm:way:1173059720:poi",
        "name": "材料科学与工程学院-新大楼",
        "verificationStatus": "PENDING_REVIEW",
        "notes": "",
        "category": "TEACHING",
        "dataSource": "OPENSTREETMAP",
        "currentVerificationStatus": "SOURCE_VERIFIED",
        "freshnessStatus": null
      }
    },
    {
      "type": "Feature",
      "id": "unverified:osm:way:1281082570:poi",
      "geometry": {
        "type": "Point",
        "coordinates": [
          118.92457729906951,
          32.11962815
        ]
      },
      "properties": {
        "reviewId": "unverified:osm:way:1281082570:poi",
        "severity": "P0",
        "reason": "POI has source validation but no manual or field verification.",
        "sourceObjectId": "osm:way:1281082570:poi",
        "name": "新体育馆",
        "verificationStatus": "PENDING_REVIEW",
        "notes": "",
        "category": "SPORT",
        "dataSource": "OPENSTREETMAP",
        "currentVerificationStatus": "SOURCE_VERIFIED",
        "freshnessStatus": null
      }
    },
    {
      "type": "Feature",
      "id": "unverified:osm:way:223859852:poi",
      "geometry": {
        "type": "Point",
        "coordinates": [
          118.93035650367177,
          32.11809325
        ]
      },
      "properties": {
        "reviewId": "unverified:osm:way:223859852:poi",
        "severity": "P0",
        "reason": "POI has source validation but no manual or field verification.",
        "sourceObjectId": "osm:way:223859852:poi",
        "name": "收发室",
        "verificationStatus": "PENDING_REVIEW",
        "notes": "",
        "category": "ADMINISTRATION",
        "dataSource": "OPENSTREETMAP",
        "currentVerificationStatus": "SOURCE_VERIFIED",
        "freshnessStatus": null
      }
    },
    {
      "type": "Feature",
      "id": "unverified:osm:way:224896131:poi",
      "geometry": {
        "type": "Point",
        "coordinates": [
          118.92815667400419,
          32.11962095
        ]
      },
      "properties": {
        "reviewId": "unverified:osm:way:224896131:poi",
        "severity": "P0",
        "reason": "POI has source validation but no manual or field verification.",
        "sourceObjectId": "osm:way:224896131:poi",
        "name": "南邮仙林三食堂",
        "verificationStatus": "PENDING_REVIEW",
        "notes": "",
        "category": "DINING",
        "dataSource": "OPENSTREETMAP",
        "currentVerificationStatus": "SOURCE_VERIFIED",
        "freshnessStatus": null
      }
    }
  ]
}
